{
  "type": "FeatureCollection",
  "features": [
    {
      "type": "Feature",
      "properties": {
        "norad_id": 41773,
        "name": "SKYSAT-C2",
        "group": "resource",
        "lat": -50.678206171840685,
        "lon": -163.77012624038824,
        "alt_km": 461.0631125038017,
        "timestamp": "2025-12-26T23:26:41.810982+00:00",
        "meta_object_name": "SKYSAT-C2",
        "meta_object_id": "2016-058D",
        "meta_epoch": "2025-12-26T14:37:58.926720",
        "meta_mean_motion": 15.37583734,
        "meta_eccentricity": 0.0002572,
        "meta_inclination": 97.0353,
        "meta_ra_of_asc_node": 24.5495,
        "meta_arg_of_pericenter": 351.2382,
        "meta_mean_anomaly": 8.8818,
        "meta_ephemeris_type": 0,
        "meta_classification_type": "U",
        "meta_norad_cat_id": 41773,
        "meta_element_set_no": 999,
        "meta_rev_at_epoch": 51849,
        "meta_bstar": 0.00034081,
        "meta_mean_motion_dot": 0.000125,
        "meta_mean_motion_ddot": 0,
        "tle_line1": "1 41773U 16058D   25360.60970980  .00012500  00000+0  34081-3 0  9993",
        "tle_line2": "2 41773  97.0353  24.5495 0002572 351.2382   8.8818 15.37583734518496"
      },
      "geometry": {
        "type": "Point",
        "coordinates": [
          -163.77012624038824,
          -50.678206171840685
        ]
      }
    },
    {
      "type": "Feature",
      "properties": {
        "norad_id": 41774,
        "name": "SKYSAT-C3",
        "group": "resource",
        "lat": 67.90386016246931,
        "lon": 16.632596379665145,
        "alt_km": 423.8922493895707,
        "timestamp": "2025-12-26T23:26:41.810991+00:00",
        "meta_object_name": "SKYSAT-C3",
        "meta_object_id": "2016-058E",
        "meta_epoch": "2025-12-26T15:22:29.771040",
        "meta_mean_motion": 15.44897562,
        "meta_eccentricity": 0.0002158,
        "meta_inclination": 96.9285,
        "meta_ra_of_asc_node": 33.7414,
        "meta_arg_of_pericenter": 106.7357,
        "meta_mean_anomaly": 253.413,
        "meta_ephemeris_type": 0,
        "meta_classification_type": "U",
        "meta_norad_cat_id": 41774,
        "meta_element_set_no": 999,
        "meta_rev_at_epoch": 51940,
        "meta_bstar": 0.00041358,
        "meta_mean_motion_dot": 0.00019372,
        "meta_mean_motion_ddot": 0,
        "tle_line1": "1 41774U 16058E   25360.64062235  .00019372  00000+0  41358-3 0  9992",
        "tle_line2": "2 41774  96.9285  33.7414 0002158 106.7357 253.4130 15.44897562519409"
      },
      "geometry": {
        "type": "Point",
        "coordinates": [
          16.632596379665145,
          67.90386016246931
        ]
      }
    },
    {
      "type": "Feature",
      "properties": {
        "norad_id": 41785,
        "name": "ALSAT 1B",
        "group": "resource",
        "lat": 4.865996950816679,
        "lon": -167.18143263654522,
        "alt_km": 659.5153275347593,
        "timestamp": "2025-12-26T23:26:41.811000+00:00",
        "meta_object_name": "ALSAT 1B",
        "meta_object_id": "2016-059C",
        "meta_epoch": "2025-12-26T17:45:34.825824",
        "meta_mean_motion": 14.72089773,
        "meta_eccentricity": 0.0010721,
        "meta_inclination": 97.7812,
        "meta_ra_of_asc_node": 11.9249,
        "meta_arg_of_pericenter": 64.2494,
        "meta_mean_anomaly": 295.9819,
        "meta_ephemeris_type": 0,
        "meta_classification_type": "U",
        "meta_norad_cat_id": 41785,
        "meta_element_set_no": 999,
        "meta_rev_at_epoch": 49520,
        "meta_bstar": 9.8152e-05,
        "meta_mean_motion_dot": 5.71e-06,
        "meta_mean_motion_ddot": 0,
        "tle_line1": "1 41785U 16059C   25360.73998641  .00000571  00000+0  98152-4 0  9990",
        "tle_line2": "2 41785  97.7812  11.9249 0010721  64.2494 295.9819 14.72089773495208"
      },
      "geometry": {
        "type": "Point",
        "coordinates": [
          -167.18143263654522,
          4.865996950816679
        ]
      }
    },
    {
      "type": "Feature",
      "properties": {
        "norad_id": 41787,
        "name": "PATHFINDER 1",
        "group": "resource",
        "lat": 10.037490879109072,
        "lon": 1.6971430886946568,
        "alt_km": 652.669074289045,
        "timestamp": "2025-12-26T23:26:41.811010+00:00",
        "meta_object_name": "PATHFINDER 1",
        "meta_object_id": "2016-059E",
        "meta_epoch": "2025-12-26T13:34:46.547328",
        "meta_mean_motion": 14.67345556,
        "meta_eccentricity": 0.0029523,
        "meta_inclination": 97.8139,
        "meta_ra_of_asc_node": 2.6979,
        "meta_arg_of_pericenter": 38.9477,
        "meta_mean_anomaly": 321.3847,
        "meta_ephemeris_type": 0,
        "meta_classification_type": "U",
        "meta_norad_cat_id": 41787,
        "meta_element_set_no": 999,
        "meta_rev_at_epoch": 49439,
        "meta_bstar": 0.00017286,
        "meta_mean_motion_dot": 9.36e-06,
        "meta_mean_motion_ddot": 0,
        "tle_line1": "1 41787U 16059E   25360.56581652  .00000936  00000+0  17286-3 0  9996",
        "tle_line2": "2 41787  97.8139   2.6979 0029523  38.9477 321.3847 14.67345556494391"
      },
      "geometry": {
        "type": "Point",
        "coordinates": [
          1.6971430886946568,
          10.037490879109072
        ]
      }
    },
    {
      "type": "Feature",
      "properties": {
        "norad_id": 41790,
        "name": "SCATSAT 1",
        "group": "resource",
        "lat": -57.83041841944312,
        "lon": -135.3368520565719,
        "alt_km": 675.6302535893883,
        "timestamp": "2025-12-26T23:26:41.811019+00:00",
        "meta_object_name": "SCATSAT 1",
        "meta_object_id": "2016-059H",
        "meta_epoch": "2025-12-26T14:15:15.732576",
        "meta_mean_motion": 14.78980653,
        "meta_eccentricity": 0.005643,
        "meta_inclination": 98.1445,
        "meta_ra_of_asc_node": 57.4361,
        "meta_arg_of_pericenter": 84.3615,
        "meta_mean_anomaly": 276.4027,
        "meta_ephemeris_type": 0,
        "meta_classification_type": "U",
        "meta_norad_cat_id": 41790,
        "meta_element_set_no": 999,
        "meta_rev_at_epoch": 7607,
        "meta_bstar": 0.00021562,
        "meta_mean_motion_dot": 1.578e-05,
        "meta_mean_motion_ddot": 0,
        "tle_line1": "1 41790U 16059H   25360.59393209  .00001578  00000+0  21562-3 0  9997",
        "tle_line2": "2 41790  98.1445  57.4361 0056430  84.3615 276.4027 14.78980653 76074"
      },
      "geometry": {
        "type": "Point",
        "coordinates": [
          -135.3368520565719,
          -57.83041841944312
        ]
      }
    },
    {
      "type": "Feature",
      "properties": {
        "norad_id": 41875,
        "name": "GOKTURK 1A",
        "group": "resource",
        "lat": -35.02254950360821,
        "lon": 67.39416606863263,
        "alt_km": 691.0444617124522,
        "timestamp": "2025-12-26T23:26:41.811028+00:00",
        "meta_object_name": "GOKTURK 1A",
        "meta_object_id": "2016-073A",
        "meta_epoch": "2025-12-26T19:10:49.164096",
        "meta_mean_motion": 14.62795525,
        "meta_eccentricity": 0.0001289,
        "meta_inclination": 98.1423,
        "meta_ra_of_asc_node": 252.9772,
        "meta_arg_of_pericenter": 82.7111,
        "meta_mean_anomaly": 277.4237,
        "meta_ephemeris_type": 0,
        "meta_classification_type": "U",
        "meta_norad_cat_id": 41875,
        "meta_element_set_no": 999,
        "meta_rev_at_epoch": 48362,
        "meta_bstar": 0.00010071,
        "meta_mean_motion_dot": 4.67e-06,
        "meta_mean_motion_ddot": 0,
        "tle_line1": "1 41875U 16073A   25360.79918014  .00000467  00000+0  10071-3 0  9995",
        "tle_line2": "2 41875  98.1423 252.9772 0001289  82.7111 277.4237 14.62795525483629"
      },
      "geometry": {
        "type": "Point",
        "coordinates": [
          67.39416606863263,
          -35.02254950360821
        ]
      }
    },
    {
      "type": "Feature",
      "properties": {
        "norad_id": 41877,
        "name": "RESOURCESAT-2A",
        "group": "resource",
        "lat": -42.51161626994616,
        "lon": 78.88702954903653,
        "alt_km": 827.13418577639,
        "timestamp": "2025-12-26T23:26:41.811037+00:00",
        "meta_object_name": "RESOURCESAT-2A",
        "meta_object_id": "2016-074A",
        "meta_epoch": "2025-12-26T18:34:47.920800",
        "meta_mean_motion": 14.21605461,
        "meta_eccentricity": 0.0001657,
        "meta_inclination": 98.7733,
        "meta_ra_of_asc_node": 70.5471,
        "meta_arg_of_pericenter": 195.7088,
        "meta_mean_anomaly": 164.4038,
        "meta_ephemeris_type": 0,
        "meta_classification_type": "U",
        "meta_norad_cat_id": 41877,
        "meta_element_set_no": 999,
        "meta_rev_at_epoch": 46980,
        "meta_bstar": 7.0944e-05,
        "meta_mean_motion_dot": 1.11e-06,
        "meta_mean_motion_ddot": 0,
        "tle_line1": "1 41877U 16074A   25360.77416575  .00000111  00000+0  70944-4 0  9993",
        "tle_line2": "2 41877  98.7733  70.5471 0001657 195.7088 164.4038 14.21605461469800"
      },
      "geometry": {
        "type": "Point",
        "coordinates": [
          78.88702954903653,
          -42.51161626994616
        ]
      }
    }
  ]
}